AMC-15                  
1 28446U 04041A   26063.02544715 -.00000102  00000+0  00000+0 0  9990
2 28446   0.0557 295.5970 0002437  56.5219  73.7714  1.00272791 78243
NSS-10                  
1 28526U 05003A   26063.03038905 -.00000262  00000+0  00000+0 0  9995
2 28526   6.1868  71.7253 0003267 276.0461 147.4943  1.00271349 52100
INMARSAT 4-F1           
1 28628U 05009A   26063.12099419  .00000023  00000+0  00000+0 0  9995
2 28628   5.0271  42.7342 0002751 325.3639  15.4373  1.00272499 76618
DIRECTV 8               
1 28659U 05019A   26063.13338757 -.00000011  00000+0  00000+0 0  9990
2 28659   0.0145 124.9367 0003293 230.8941  95.0082  1.00272536 76012
GALAXY 28 (G-28)        
1 28702U 05022A   26063.15158765 -.00000211  00000+0  00000+0 0  9996
2 28702   3.0274  80.2535 0002288 263.6940 205.4381  1.00272049 50924
THAICOM 4               
1 28786U 05028A   26063.03805381 -.00000375  00000+0  00000+0 0  9995
2 28786   0.0394 270.8592 0002013  88.0233 296.1011  1.00270436 51191
ANIK F1R                
1 28868U 05036A   26063.13572759 -.00000086  00000+0  00000+0 0  9995
2 28868   4.0443  77.8955 0002892 299.7446  85.8143  1.00272119 45407
SYRACUSE 3A             
1 28885U 05041B   26063.09482074  .00000120  00000+0  00000+0 0  9993
2 28885   4.3741  77.1450 0003627 269.5686 255.4581  1.00271415 74693
INMARSAT 4-F2           
1 28899U 05044A   26062.82884977 -.00000271  00000+0  00000+0 0  9997
2 28899   4.9565  43.8040 0002619 317.3778 242.2859  1.00271478 74463
METEOSAT-9 (MSG-2)      
1 28912U 05049B   26063.09473406  .00000115  00000+0  00000+0 0  9995
2 28912   9.1243  55.1851 0001796 221.3910 325.1022  1.00277093  5941
EUTELSAT 174A           
1 28924U 05052A   26062.90616302 -.00000003  00000+0  00000+0 0  9992
2 28924   3.9520  77.8346 0006270 268.1150 315.8997  1.00273559 51278
ECHOSTAR 10             
1 28935U 06003A   26063.13520759 -.00000068  00000+0  00000+0 0  9998
2 28935   0.0604 290.2060 0002169  14.1860 155.9641  1.00271488 73413
SPAINSAT                
1 28945U 06007A   26062.63545294 -.00000231  00000+0  00000+0 0  9990
2 28945   0.2903  89.2390 0004234 256.5000  14.2147  1.00272542 73165
JCSAT-5A                
1 29045U 06010A   26062.96917000 -.00000340  00000+0  00000+0 0  9991
2 29045   0.8365  85.6128 0001371 308.8809 248.1774  1.00273852 72710
ASTRA 1KR               
1 29055U 06012A   26063.16077437  .00000106  00000+0  00000+0 0  9997
2 29055   0.2032  81.8267 0003400 244.8301 272.1245  1.00272123 44640
GALAXY 16 (G-16)        
1 29236U 06023A   26063.18586576 -.00000138  00000+0  00000+0 0  9997
2 29236   0.0452 235.8009 0002590 119.7827 134.2315  1.00263093 71925
EUTELSAT 33F            
1 29270U 06032A   26063.09222072  .00000143  00000+0  00000+0 0  9998
2 29270   1.3902  83.4810 0003564 257.5914 247.0679  1.00269121 46256
