[{"OBJECT_NAME":"AMC-15","OBJECT_ID":"2004-041A","EPOCH":"2026-03-04T00:36:38.633760","MEAN_MOTION":1.00272791,"ECCENTRICITY":0.0002437,"INCLINATION":0.0557,"RA_OF_ASC_NODE":295.597,"ARG_OF_PERICENTER":56.5219,"MEAN_ANOMALY":73.7714,"EPHEMERIS_TYPE":0,"CLASSIFICATION_TYPE":"U","NORAD_CAT_ID":28446,"ELEMENT_SET_NO":999,"REV_AT_EPOCH":7824,"BSTAR":0,"MEAN_MOTION_DOT":-1.02e-6,"MEAN_MOTION_DDOT":0},{"OBJECT_NAME":"NSS-10","OBJECT_ID":"2005-003A","EPOCH":"2026-03-04T00:43:45.613920","MEAN_MOTION":1.00271349,"ECCENTRICITY":0.0003267,"INCLINATION":6.1868,"RA_OF_ASC_NODE":71.7253,"ARG_OF_PERICENTER":276.0461,"MEAN_ANOMALY":147.4943,"EPHEMERIS_TYPE":0,"CLASSIFICATION_TYPE":"U","NORAD_CAT_ID":28526,"ELEMENT_SET_NO":999,"REV_AT_EPOCH":5210,"BSTAR":0,"MEAN_MOTION_DOT":-2.62e-6,"MEAN_MOTION_DDOT":0},{"OBJECT_NAME":"INMARSAT 4-F1","OBJECT_ID":"2005-009A","EPOCH":"2026-03-04T02:54:13.898016","MEAN_MOTION":1.00272499,"ECCENTRICITY":0.0002751,"INCLINATION":5.0271,"RA_OF_ASC_NODE":42.7342,"ARG_OF_PERICENTER":325.3639,"MEAN_ANOMALY":15.4373,"EPHEMERIS_TYPE":0,"CLASSIFICATION_TYPE":"U","NORAD_CAT_ID":28628,"ELEMENT_SET_NO":999,"REV_AT_EPOCH":7661,"BSTAR":0,"MEAN_MOTION_DOT":2.3e-7,"MEAN_MOTION_DDOT":0},{"OBJECT_NAME":"DIRECTV 8","OBJECT_ID":"2005-019A","EPOCH":"2026-03-04T03:12:04.686048","MEAN_MOTION":1.00272536,"ECCENTRICITY":0.0003293,"INCLINATION":0.0145,"RA_OF_ASC_NODE":124.9367,"ARG_OF_PERICENTER":230.8941,"MEAN_ANOMALY":95.0082,"EPHEMERIS_TYPE":0,"CLASSIFICATION_TYPE":"U","NORAD_CAT_ID":28659,"ELEMENT_SET_NO":999,"REV_AT_EPOCH":7601,"BSTAR":0,"MEAN_MOTION_DOT":-1.1e-7,"MEAN_MOTION_DDOT":0},{"OBJECT_NAME":"GALAXY 28 (G-28)","OBJECT_ID":"2005-022A","EPOCH":"2026-03-04T03:38:17.172960","MEAN_MOTION":1.00272049,"ECCENTRICITY":0.0002288,"INCLINATION":3.0274,"RA_OF_ASC_NODE":80.2535,"ARG_OF_PERICENTER":263.694,"MEAN_ANOMALY":205.4381,"EPHEMERIS_TYPE":0,"CLASSIFICATION_TYPE":"U","NORAD_CAT_ID":28702,"ELEMENT_SET_NO":999,"REV_AT_EPOCH":5092,"BSTAR":0,"MEAN_MOTION_DOT":-2.11e-6,"MEAN_MOTION_DDOT":0},{"OBJECT_NAME":"THAICOM 4","OBJECT_ID":"2005-028A","EPOCH":"2026-03-04T00:54:47.849184","MEAN_MOTION":1.00270436,"ECCENTRICITY":0.0002013,"INCLINATION":0.0394,"RA_OF_ASC_NODE":270.8592,"ARG_OF_PERICENTER":88.0233,"MEAN_ANOMALY":296.1011,"EPHEMERIS_TYPE":0,"CLASSIFICATION_TYPE":"U","NORAD_CAT_ID":28786,"ELEMENT_SET_NO":999,"REV_AT_EPOCH":5119,"BSTAR":0,"MEAN_MOTION_DOT":-3.75e-6,"MEAN_MOTION_DDOT":0},{"OBJECT_NAME":"ANIK F1R","OBJECT_ID":"2005-036A","EPOCH":"2026-03-04T03:15:26.863776","MEAN_MOTION":1.00272119,"ECCENTRICITY":0.0002892,"INCLINATION":4.0443,"RA_OF_ASC_NODE":77.8955,"ARG_OF_PERICENTER":299.7446,"MEAN_ANOMALY":85.8143,"EPHEMERIS_TYPE":0,"CLASSIFICATION_TYPE":"U","NORAD_CAT_ID":28868,"ELEMENT_SET_NO":999,"REV_AT_EPOCH":4540,"BSTAR":0,"MEAN_MOTION_DOT":-8.6e-7,"MEAN_MOTION_DDOT":0},{"OBJECT_NAME":"SYRACUSE 3A","OBJECT_ID":"2005-041B","EPOCH":"2026-03-04T02:16:32.511936","MEAN_MOTION":1.00271415,"ECCENTRICITY":0.0003627,"INCLINATION":4.3741,"RA_OF_ASC_NODE":77.145,"ARG_OF_PERICENTER":269.5686,"MEAN_ANOMALY":255.4581,"EPHEMERIS_TYPE":0,"CLASSIFICATION_TYPE":"U","NORAD_CAT_ID":28885,"ELEMENT_SET_NO":999,"REV_AT_EPOCH":7469,"BSTAR":0,"MEAN_MOTION_DOT":1.2e-6,"MEAN_MOTION_DDOT":0},{"OBJECT_NAME":"INMARSAT 4-F2","OBJECT_ID":"2005-044A","EPOCH":"2026-03-03T19:53:32.620128","MEAN_MOTION":1.00271478,"ECCENTRICITY":0.0002619,"INCLINATION":4.9565,"RA_OF_ASC_NODE":43.804,"ARG_OF_PERICENTER":317.3778,"MEAN_ANOMALY":242.2859,"EPHEMERIS_TYPE":0,"CLASSIFICATION_TYPE":"U","NORAD_CAT_ID":28899,"ELEMENT_SET_NO":999,"REV_AT_EPOCH":7446,"BSTAR":0,"MEAN_MOTION_DOT":-2.71e-6,"MEAN_MOTION_DDOT":0},{"OBJECT_NAME":"METEOSAT-9 (MSG-2)","OBJECT_ID":"2005-049B","EPOCH":"2026-03-04T02:16:25.022784","MEAN_MOTION":1.00277093,"ECCENTRICITY":0.0001796,"INCLINATION":9.1243,"RA_OF_ASC_NODE":55.1851,"ARG_OF_PERICENTER":221.391,"MEAN_ANOMALY":325.1022,"EPHEMERIS_TYPE":0,"CLASSIFICATION_TYPE":"U","NORAD_CAT_ID":28912,"ELEMENT_SET_NO":999,"REV_AT_EPOCH":594,"BSTAR":0,"MEAN_MOTION_DOT":1.15e-6,"MEAN_MOTION_DDOT":0},{"OBJECT_NAME":"EUTELSAT 174A","OBJECT_ID":"2005-052A","EPOCH":"2026-03-03T21:44:52.484928","MEAN_MOTION":1.00273559,"ECCENTRICITY":0.000627,"INCLINATION":3.952,"RA_OF_ASC_NODE":77.8346,"ARG_OF_PERICENTER":268.115,"MEAN_ANOMALY":315.8997,"EPHEMERIS_TYPE":0,"CLASSIFICATION_TYPE":"U","NORAD_CAT_ID":28924,"ELEMENT_SET_NO":999,"REV_AT_EPOCH":5127,"BSTAR":0,"MEAN_MOTION_DOT":-3.0e-8,"MEAN_MOTION_DDOT":0},{"OBJECT_NAME":"ECHOSTAR 10","OBJECT_ID":"2006-003A","EPOCH":"2026-03-04T03:14:41.935776","MEAN_MOTION":1.00271488,"ECCENTRICITY":0.0002169,"INCLINATION":0.0604,"RA_OF_ASC_NODE":290.206,"ARG_OF_PERICENTER":14.186,"MEAN_ANOMALY":155.9641,"EPHEMERIS_TYPE":0,"CLASSIFICATION_TYPE":"U","NORAD_CAT_ID":28935,"ELEMENT_SET_NO":999,"REV_AT_EPOCH":7341,"BSTAR":0,"MEAN_MOTION_DOT":-6.8e-7,"MEAN_MOTION_DDOT":0},{"OBJECT_NAME":"SPAINSAT","OBJECT_ID":"2006-007A","EPOCH":"2026-03-03T15:15:03.134016","MEAN_MOTION":1.00272542,"ECCENTRICITY":0.0004234,"INCLINATION":0.2903,"RA_OF_ASC_NODE":89.239,"ARG_OF_PERICENTER":256.5,"MEAN_ANOMALY":14.2147,"EPHEMERIS_TYPE":0,"CLASSIFICATION_TYPE":"U","NORAD_CAT_ID":28945,"ELEMENT_SET_NO":999,"REV_AT_EPOCH":7316,"BSTAR":0,"MEAN_MOTION_DOT":-2.31e-6,"MEAN_MOTION_DDOT":0},{"OBJECT_NAME":"JCSAT-5A","OBJECT_ID":"2006-010A","EPOCH":"2026-03-03T23:15:36.288000","MEAN_MOTION":1.00273852,"ECCENTRICITY":0.0001371,"INCLINATION":0.8365,"RA_OF_ASC_NODE":85.6128,"ARG_OF_PERICENTER":308.8809,"MEAN_ANOMALY":248.1774,"EPHEMERIS_TYPE":0,"CLASSIFICATION_TYPE":"U","NORAD_CAT_ID":29045,"ELEMENT_SET_NO":999,"REV_AT_EPOCH":7271,"BSTAR":0,"MEAN_MOTION_DOT":-3.4e-6,"MEAN_MOTION_DDOT":0},{"OBJECT_NAME":"ASTRA 1KR","OBJECT_ID":"2006-012A","EPOCH":"2026-03-04T03:51:30.905568","MEAN_MOTION":1.00272123,"ECCENTRICITY":0.00034,"INCLINATION":0.2032,"RA_OF_ASC_NODE":81.8267,"ARG_OF_PERICENTER":244.8301,"MEAN_ANOMALY":272.1245,"EPHEMERIS_TYPE":0,"CLASSIFICATION_TYPE":"U","NORAD_CAT_ID":29055,"ELEMENT_SET_NO":999,"REV_AT_EPOCH":4464,"BSTAR":0,"MEAN_MOTION_DOT":1.06e-6,"MEAN_MOTION_DDOT":0},{"OBJECT_NAME":"GALAXY 16 (G-16)","OBJECT_ID":"2006-023A","EPOCH":"2026-03-04T04:27:38.801664","MEAN_MOTION":1.00263093,"ECCENTRICITY":0.000259,"INCLINATION":0.0452,"RA_OF_ASC_NODE":235.8009,"ARG_OF_PERICENTER":119.7827,"MEAN_ANOMALY":134.2315,"EPHEMERIS_TYPE":0,"CLASSIFICATION_TYPE":"U","NORAD_CAT_ID":29236,"ELEMENT_SET_NO":999,"REV_AT_EPOCH":7192,"BSTAR":0,"MEAN_MOTION_DOT":-1.38e-6,"MEAN_MOTION_DDOT":0},{"OBJECT_NAME":"EUTELSAT 33F","OBJECT_ID":"2006-032A","EPOCH":"2026-03-04T02:12:47.870208","MEAN_MOTION":1.00269121,"ECCENTRICITY":0.0003564,"INCLINATION":1.3902,"RA_OF_ASC_NODE":83.481,"ARG_OF_PERICENTER":257.5914,"MEAN_ANOMALY":247.0679,"EPHEMERIS_TYPE":0,"CLASSIFICATION_TYPE":"U","NORAD_CAT_ID":29270,"ELEMENT_SET_NO":999,"REV_AT_EPOCH":4625,"BSTAR":0,"MEAN_MOTION_DOT":1.43e-6,"MEAN_MOTION_DDOT":0}]
